{
  "type": "FeatureCollection",
  "features": [
    {
      "type": "Feature",
      "properties": {
        "norad_id": 37238,
        "name": "INTELSAT 17 (IS-17)",
        "group": "intelsat",
        "lat": 0.008757714899217532,
        "lon": 121.6219532211785,
        "alt_km": 35792.9767504675,
        "timestamp": "2025-12-06T22:38:42.402601+00:00",
        "meta_object_name": "INTELSAT 17 (IS-17)",
        "meta_object_id": "2010-065B",
        "meta_epoch": "2025-12-06T12:16:05.108736",
        "meta_mean_motion": 1.00271623,
        "meta_eccentricity": 0.00024654,
        "meta_inclination": 0.0089,
        "meta_ra_of_asc_node": 303.9749,
        "meta_arg_of_pericenter": 308.7158,
        "meta_mean_anomaly": 72.8813,
        "meta_ephemeris_type": 0,
        "meta_classification_type": "U",
        "meta_norad_cat_id": 37238,
        "meta_element_set_no": 999,
        "meta_rev_at_epoch": 5131,
        "meta_bstar": 0,
        "meta_mean_motion_dot": 5e-08,
        "meta_mean_motion_ddot": 0,
        "tle_line1": "1 37238U 10065B   25340.51117024  .00000005  00000+0  00000+0 0  9993",
        "tle_line2": "2 37238   0.0089 303.9749 0002465 308.7158  72.8813  1.00271623 51317"
      },
      "geometry": {
        "type": "Point",
        "coordinates": [
          121.6219532211785,
          0.008757714899217532
        ]
      }
    },
    {
      "type": "Feature",
      "properties": {
        "norad_id": 37392,
        "name": "INTELSAT 28 (IS-28)",
        "group": "intelsat",
        "lat": -1.128008267522687,
        "lon": 23.983885035922075,
        "alt_km": 35796.01507761298,
        "timestamp": "2025-12-06T22:38:42.402613+00:00",
        "meta_object_name": "INTELSAT 28 (IS-28)",
        "meta_object_id": "2011-016A",
        "meta_epoch": "2025-12-06T10:05:25.124352",
        "meta_mean_motion": 1.00270598,
        "meta_eccentricity": 0.00041639,
        "meta_inclination": 1.3075,
        "meta_ra_of_asc_node": 85.1332,
        "meta_arg_of_pericenter": 176.629,
        "meta_mean_anomaly": 293.3475,
        "meta_ephemeris_type": 0,
        "meta_classification_type": "U",
        "meta_norad_cat_id": 37392,
        "meta_element_set_no": 999,
        "meta_rev_at_epoch": 5135,
        "meta_bstar": 0,
        "meta_mean_motion_dot": -2.18e-06,
        "meta_mean_motion_ddot": 0,
        "tle_line1": "1 37392U 11016A   25340.42042968 -.00000218  00000+0  00000+0 0  9992",
        "tle_line2": "2 37392   1.3075  85.1332 0004163 176.6290 293.3475  1.00270598 51358"
      },
      "geometry": {
        "type": "Point",
        "coordinates": [
          23.983885035922075,
          -1.128008267522687
        ]
      }
    },
    {
      "type": "Feature",
      "properties": {
        "norad_id": 37834,
        "name": "INTELSAT 18 (IS-18)",
        "group": "intelsat",
        "lat": -0.04083440570034522,
        "lon": -124.36895399899,
        "alt_km": 35777.877600617096,
        "timestamp": "2025-12-06T22:38:42.402625+00:00",
        "meta_object_name": "INTELSAT 18 (IS-18)",
        "meta_object_id": "2011-056A",
        "meta_epoch": "2025-12-06T14:34:38.434656",
        "meta_mean_motion": 1.00271718,
        "meta_eccentricity": 0.00021478,
        "meta_inclination": 0.0165,
        "meta_ra_of_asc_node": 323.2539,
        "meta_arg_of_pericenter": 298.0246,
        "meta_mean_anomaly": 213.0255,
        "meta_ephemeris_type": 0,
        "meta_classification_type": "U",
        "meta_norad_cat_id": 37834,
        "meta_element_set_no": 999,
        "meta_rev_at_epoch": 5188,
        "meta_bstar": 0,
        "meta_mean_motion_dot": 6e-07,
        "meta_mean_motion_ddot": 0,
        "tle_line1": "1 37834U 11056A   25340.60738929  .00000060  00000+0  00000+0 0  9990",
        "tle_line2": "2 37834   0.0165 323.2539 0002147 298.0246 213.0255  1.00271718 51888"
      },
      "geometry": {
        "type": "Point",
        "coordinates": [
          -124.36895399899,
          -0.04083440570034522
        ]
      }
    },
    {
      "type": "Feature",
      "properties": {
        "norad_id": 38098,
        "name": "INTELSAT 22 (IS-22)",
        "group": "intelsat",
        "lat": 0.019377570499001268,
        "lon": 127.73569839027243,
        "alt_km": 35791.85764361306,
        "timestamp": "2025-12-06T22:38:42.402637+00:00",
        "meta_object_name": "INTELSAT 22 (IS-22)",
        "meta_object_id": "2012-011A",
        "meta_epoch": "2025-12-06T12:17:49.942176",
        "meta_mean_motion": 1.00271093,
        "meta_eccentricity": 0.0001762,
        "meta_inclination": 0.0097,
        "meta_ra_of_asc_node": 36.1141,
        "meta_arg_of_pericenter": 230.1829,
        "meta_mean_anomaly": 65.8196,
        "meta_ephemeris_type": 0,
        "meta_classification_type": "U",
        "meta_norad_cat_id": 38098,
        "meta_element_set_no": 999,
        "meta_rev_at_epoch": 525,
        "meta_bstar": 0,
        "meta_mean_motion_dot": -5.2e-07,
        "meta_mean_motion_ddot": 0,
        "tle_line1": "1 38098U 12011A   25340.51238359 -.00000052  00000+0  00000+0 0  9999",
        "tle_line2": "2 38098   0.0097  36.1141 0001762 230.1829  65.8196  1.00271093  5253"
      },
      "geometry": {
        "type": "Point",
        "coordinates": [
          127.73569839027243,
          0.019377570499001268
        ]
      }
    },
    {
      "type": "Feature",
      "properties": {
        "norad_id": 38356,
        "name": "INTELSAT 19 (IS-19)",
        "group": "intelsat",
        "lat": -0.02616478902774304,
        "lon": -138.3825905616478,
        "alt_km": 35775.19382302621,
        "timestamp": "2025-12-06T22:38:42.402650+00:00",
        "meta_object_name": "INTELSAT 19 (IS-19)",
        "meta_object_id": "2012-030A",
        "meta_epoch": "2025-12-06T12:36:51.616224",
        "meta_mean_motion": 1.00270226,
        "meta_eccentricity": 0.00035412,
        "meta_inclination": 0.0102,
        "meta_ra_of_asc_node": 0.7713,
        "meta_arg_of_pericenter": 261.9134,
        "meta_mean_anomaly": 168.0982,
        "meta_ephemeris_type": 0,
        "meta_classification_type": "U",
        "meta_norad_cat_id": 38356,
        "meta_element_set_no": 999,
        "meta_rev_at_epoch": 4851,
        "meta_bstar": 0,
        "meta_mean_motion_dot": -5e-07,
        "meta_mean_motion_ddot": 0,
        "tle_line1": "1 38356U 12030A   25340.52559741 -.00000050  00000+0  00000+0 0  9997",
        "tle_line2": "2 38356   0.0102   0.7713 0003541 261.9134 168.0982  1.00270226 48519"
      },
      "geometry": {
        "type": "Point",
        "coordinates": [
          -138.3825905616478,
          -0.02616478902774304
        ]
      }
    },
    {
      "type": "Feature",
      "properties": {
        "norad_id": 38740,
        "name": "INTELSAT 20 (IS-20)",
        "group": "intelsat",
        "lat": 0.0029845686925156433,
        "lon": 124.12797831862844,
        "alt_km": 35780.539522987834,
        "timestamp": "2025-12-06T22:38:42.402662+00:00",
        "meta_object_name": "INTELSAT 20 (IS-20)",
        "meta_object_id": "2012-043A",
        "meta_epoch": "2025-12-06T12:16:50.036736",
        "meta_mean_motion": 1.00270942,
        "meta_eccentricity": 0.00027623,
        "meta_inclination": 0.0079,
        "meta_ra_of_asc_node": 76.3857,
        "meta_arg_of_pericenter": 107.7543,
        "meta_mean_anomaly": 144.1327,
        "meta_ephemeris_type": 0,
        "meta_classification_type": "U",
        "meta_norad_cat_id": 38740,
        "meta_element_set_no": 999,
        "meta_rev_at_epoch": 4881,
        "meta_bstar": 0,
        "meta_mean_motion_dot": -1.8e-07,
        "meta_mean_motion_ddot": 0,
        "tle_line1": "1 38740U 12043A   25340.51169024 -.00000018  00000+0  00000+0 0  9992",
        "tle_line2": "2 38740   0.0079  76.3857 0002762 107.7543 144.1327  1.00270942 48818"
      },
      "geometry": {
        "type": "Point",
        "coordinates": [
          124.12797831862844,
          0.0029845686925156433
        ]
      }
    },
    {
      "type": "Feature",
      "properties": {
        "norad_id": 38749,
        "name": "INTELSAT 21 (IS-21)",
        "group": "intelsat",
        "lat": 0.01050950405679246,
        "lon": -2.3278446134940283,
        "alt_km": 35789.01568797598,
        "timestamp": "2025-12-06T22:38:42.402674+00:00",
        "meta_object_name": "INTELSAT 21 (IS-21)",
        "meta_object_id": "2012-045A",
        "meta_epoch": "2025-12-06T11:40:38.504064",
        "meta_mean_motion": 1.00271258,
        "meta_eccentricity": 0.0002263,
        "meta_inclination": 0.0166,
        "meta_ra_of_asc_node": 347.1755,
        "meta_arg_of_pericenter": 263.8521,
        "meta_mean_anomaly": 301.664,
        "meta_ephemeris_type": 0,
        "meta_classification_type": "U",
        "meta_norad_cat_id": 38749,
        "meta_element_set_no": 999,
        "meta_rev_at_epoch": 4859,
        "meta_bstar": 0,
        "meta_mean_motion_dot": -2.78e-06,
        "meta_mean_motion_ddot": 0,
        "tle_line1": "1 38749U 12045A   25340.48655676 -.00000278  00000+0  00000+0 0  9990",
        "tle_line2": "2 38749   0.0166 347.1755 0002263 263.8521 301.6640  1.00271258 48590"
      },
      "geometry": {
        "type": "Point",
        "coordinates": [
          -2.3278446134940283,
          0.01050950405679246
        ]
      }
    }
  ]
}